NORAD_CAT_ID,OBJECT_NAME,OBJECT_TYPE,EPOCH,MEAN_MOTION,ECCENTRICITY,INCLINATION,RA_OF_ASC_NODE,ARG_OF_PERICENTER,MEAN_ANOMALY,BSTAR,MEAN_MOTION_DOT,MEAN_MOTION_DDOT,TLE_LINE0,TLE_LINE1,TLE_LINE2,SEMIMAJOR_AXIS,PERIOD,APOGEE,PERIGEE,DECAYED
52604.0,STARLINK-4013,PAYLOAD,2023-11-09 17:39:37,15.08852957,0.0001365,53.2158,139.1992,111.0199,249.094,0.00033726,5.086e-05,0.0,0 STARLINK-4013,1 52604U 22052G   23313.73585053  .00005086  00000-0  33726-3 0  9999,2 52604  53.2158 139.1992 0001365 111.0199 249.0940 15.08852957 82765,6917.841,95.437,540.65,538.761,0.0
52604.0,STARLINK-4013,PAYLOAD,2023-11-09 19:15:00,15.08852219,0.0001298,53.2157,138.9022,107.262,252.8514,0.00031461,4.724e-05,0.0,0 STARLINK-4013,1 52604U 22052G   23313.80209029  .00004724  00000-0  31461-3 0  9995,2 52604  53.2157 138.9022 0001298 107.2620 252.8514 15.08852219 82407,6917.843,95.437,540.606,538.81,0.0
52604.0,STARLINK-4013,PAYLOAD,2023-11-10 19:05:47,15.08848021,0.0001287,53.2155,134.4417,92.1131,268.0009,0.00015286,2.146e-05,0.0,0 STARLINK-4013,1 52604U 22052G   23314.79568787  .00002146  00000-0  15286-3 0  9996,2 52604  53.2155 134.4417 0001287  92.1131 268.0009 15.08848021 82922,6917.856,95.437,540.611,538.831,0.0
52604.0,STARLINK-4013,PAYLOAD,2023-11-11 10:59:38,15.08842855,0.000136,53.216,131.4699,98.3939,261.7208,8.7614e-05,1.107e-05,0.0,0 STARLINK-4013,1 52604U 22052G   23315.45808862  .00001107  00000-0  87614-4 0  9992,2 52604  53.2160 131.4699 0001360  98.3939 261.7208 15.08842855 83025,6917.872,95.437,540.677,538.796,0.0
52604.0,STARLINK-4013,PAYLOAD,2023-11-11 17:21:11,15.08839134,0.0001358,53.2164,130.2797,95.8036,264.3111,1.4946e-05,-5e-07,0.0,0 STARLINK-4013,1 52604U 22052G   23315.72305021 -.00000050  00000-0  14946-4 0  9996,2 52604  53.2164 130.2797 0001358  95.8036 264.3111 15.08839134 82692,6917.883,95.438,540.687,538.809,0.0
52604.0,STARLINK-4013,PAYLOAD,2023-11-12 10:50:26,15.08842624,0.0001336,53.2179,127.0085,94.3344,265.7801,8.3658e-05,1.044e-05,0.0,0 STARLINK-4013,1 52604U 22052G   23316.45169001  .00001044  00000-0  83658-4 0  9992,2 52604  53.2179 127.0085 0001336  94.3344 265.7801 15.08842624 82806,6917.872,95.437,540.662,538.813,0.0
52604.0,STARLINK-4013,PAYLOAD,2023-11-12 18:47:21,15.08845456,0.0001341,53.2179,125.5217,93.8078,266.3067,9.5614e-05,1.234e-05,0.0,0 STARLINK-4013,1 52604U 22052G   23316.78288717  .00001234  00000-0  95614-4 0  9990,2 52604  53.2179 125.5217 0001341  93.8078 266.3067 15.08845456 83224,6917.864,95.437,540.656,538.801,0.0
52604.0,STARLINK-4013,PAYLOAD,2023-11-13 04:19:40,15.08843828,0.0001349,53.2181,123.7375,91.2662,268.8485,8.6692e-05,1.092e-05,0.0,0 STARLINK-4013,1 52604U 22052G   23317.18032785  .00001092  00000-0  86692-4 0  9995,2 52604  53.2181 123.7375 0001349  91.2662 268.8485 15.08843828 82918,6917.869,95.437,540.667,538.8,0.0
52604.0,STARLINK-4013,PAYLOAD,2023-11-13 20:13:31,15.08844613,0.0001266,53.2173,120.7632,87.0265,273.0872,0.00011966,1.617e-05,0.0,0 STARLINK-4013,1 52604U 22052G   23317.84272559  .00001617  00000-0  11966-3 0  9997,2 52604  53.2173 120.7632 0001266  87.0265 273.0872 15.08844613 83015,6917.866,95.437,540.607,538.855,0.0
52604.0,STARLINK-4013,PAYLOAD,2023-11-14 04:10:27,15.08841143,0.0001168,53.2169,119.277,90.732,269.3806,7.7024e-05,9.38e-06,0.0,0 STARLINK-4013,1 52604U 22052G   23318.17392814  .00000938  00000-0  77024-4 0  9994,2 52604  53.2169 119.2770 0001168  90.7320 269.3806 15.08841143 83065,6917.877,95.437,540.55,538.934,0.0
52604.0,STARLINK-4013,PAYLOAD,2023-11-14 16:53:32,15.08837186,0.0001287,53.2172,116.898,90.6691,269.4448,1.0801e-05,-1.16e-06,0.0,0 STARLINK-4013,1 52604U 22052G   23318.70385299 -.00000116  00000-0  10801-4 0  9991,2 52604  53.2172 116.8980 0001287  90.6691 269.4448 15.08837186 83512,6917.889,95.438,540.644,538.864,0.0
52604.0,STARLINK-4013,PAYLOAD,2023-11-14 20:04:18,15.08841107,0.0001458,53.2175,116.303,89.1461,270.9699,-7.995e-06,-4.15e-06,0.0,0 STARLINK-4013,1 52604U 22052G   23318.83633085 -.00000415  00000-0 -79950-5 0  9998,2 52604  53.2175 116.3030 0001458  89.1461 270.9699 15.08841107 83168,6917.877,95.437,540.751,538.733,0.0
52604.0,STARLINK-4013,PAYLOAD,2023-11-15 10:22:47,15.08841176,0.0001409,53.2157,113.6269,89.6894,270.4259,2.304e-05,7.9e-07,0.0,0 STARLINK-4013,1 52604U 22052G   23319.43249007  .00000079  00000-0  23040-4 0  9994,2 52604  53.2157 113.6269 0001409  89.6894 270.4259 15.08841176 83256,6917.877,95.437,540.717,538.767,0.0
52604.0,STARLINK-4013,PAYLOAD,2023-11-15 16:44:19,15.0884224,0.000141,53.2155,112.4374,89.6593,270.456,3.0126e-05,1.92e-06,0.0,0 STARLINK-4013,1 52604U 22052G   23319.69744883  .00000192  00000-0  30126-4 0  9993,2 52604  53.2155 112.4374 0001410  89.6593 270.4560 15.08842240 83298,6917.874,95.437,540.714,538.763,0.0
52604.0,STARLINK-4013,PAYLOAD,2023-11-16 10:13:34,15.08837278,0.0001388,53.2161,109.1662,91.5377,268.5774,7.6488e-05,9.3e-06,0.0,0 STARLINK-4013,1 52604U 22052G   23320.42609108  .00000930  00000-0  76488-4 0  9997,2 52604  53.2161 109.1662 0001388  91.5377 268.5774 15.08837278 83407,6917.889,95.438,540.714,538.794,0.0
52604.0,STARLINK-4013,PAYLOAD,2023-11-16 16:35:06,15.08838097,0.000137,53.2157,107.9762,92.6696,267.4453,7.9112e-05,9.71e-06,0.0,0 STARLINK-4013,1 52604U 22052G   23320.69105052  .00000971  00000-0  79112-4 0  9997,2 52604  53.2157 107.9762 0001370  92.6696 267.4453 15.08838097 83442,6917.886,95.438,540.699,538.803,0.0
52604.0,STARLINK-4013,PAYLOAD,2023-11-17 10:04:21,15.08834427,2.9e-05,53.2199,104.706,62.681,297.4211,1.0859e-05,-1.15e-06,0.0,0 STARLINK-4013,1 52604U 22052G   23321.41969714 -.00000115  00000-0  10859-4 0  9995,2 52604  53.2199 104.7060 0000290  62.6810 297.4211 15.08834427 83920,6917.897,95.438,539.963,539.562,0.0
52604.0,STARLINK-4013,PAYLOAD,2023-11-17 13:15:08,15.08835954,0.0001227,53.2178,104.1117,93.5488,266.5645,2.4487e-05,1.02e-06,0.0,0 STARLINK-4013,1 52604U 22052G   23321.55217596  .00000102  00000-0  24487-4 0  9991,2 52604  53.2178 104.1117 0001227  93.5488 266.5645 15.08835954 83574,6917.893,95.438,540.607,538.909,0.0
52604.0,STARLINK-4013,PAYLOAD,2023-11-17 16:25:54,15.08838283,0.0001162,53.2179,103.5167,93.7454,266.3671,4.2279e-05,3.85e-06,0.0,0 STARLINK-4013,1 52604U 22052G   23321.68465411  .00000385  00000-0  42279-4 0  9998,2 52604  53.2179 103.5167 0001162  93.7454 266.3671 15.08838283 83964,6917.886,95.438,540.554,538.947,0.0
52604.0,STARLINK-4013,PAYLOAD,2023-11-18 13:05:54,15.08837778,0.00012,53.2174,99.6517,94.042,266.071,6.1103e-05,6.85e-06,0.0,0 STARLINK-4013,1 52604U 22052G   23322.54577512  .00000685  00000-0  61103-4 0  9990,2 52604  53.2174  99.6517 0001200  94.0420 266.0710 15.08837778 83726,6917.887,95.438,540.582,538.922,0.0
52604.0,STARLINK-4013,PAYLOAD,2023-11-18 16:16:41,15.08839469,0.0001167,53.2168,99.0562,93.3812,266.7313,7.2027e-05,8.59e-06,0.0,0 STARLINK-4013,1 52604U 22052G   23322.67825378  .00000859  00000-0  72027-4 0  9990,2 52604  53.2168  99.0562 0001167  93.3812 266.7313 15.08839469 83749,6917.882,95.438,540.554,538.94,0.0
52604.0,STARLINK-4013,PAYLOAD,2023-11-19 14:32:05,15.08838157,0.000131,53.218,94.8939,94.2999,265.8143,4.1311e-05,3.7e-06,0.0,0 STARLINK-4013,1 52604U 22052G   23323.60561744  .00000370  00000-0  41311-4 0  9998,2 52604  53.2180  94.8939 0001310  94.2999 265.8143 15.08838157 83889,6917.886,95.438,540.657,538.845,0.0
52604.0,STARLINK-4013,PAYLOAD,2023-11-19 19:18:14,15.08841092,0.0001308,53.2175,94.0007,92.0674,268.0468,5.9153e-05,6.54e-06,0.0,0 STARLINK-4013,1 52604U 22052G   23323.80433505  .00000654  00000-0  59153-4 0  9991,2 52604  53.2175  94.0007 0001308  92.0674 268.0468 15.08841092 84286,6917.877,95.437,540.647,538.837,0.0
52604.0,STARLINK-4013,PAYLOAD,2023-11-20 14:22:52,15.0884117,0.0001344,53.2176,90.4322,95.5017,264.6128,4.157e-05,3.74e-06,0.0,0 STARLINK-4013,1 52604U 22052G   23324.59921662  .00000374  00000-0  41570-4 0  9997,2 52604  53.2176  90.4322 0001344  95.5017 264.6128 15.08841170 84031,6917.877,95.437,540.672,538.812,0.0
52604.0,STARLINK-4013,PAYLOAD,2023-11-20 17:33:38,15.08847823,0.0001563,53.2178,89.8376,99.88,260.2368,3.1588e-05,2.15e-06,0.0,0 STARLINK-4013,1 52604U 22052G   23324.73169253  .00000215  00000-0  31588-4 0  9995,2 52604  53.2178  89.8376 0001563  99.8800 260.2368 15.08847823 84055,6917.856,95.437,540.803,538.64,0.0
52604.0,STARLINK-4013,PAYLOAD,2023-11-21 11:02:53,15.08835817,0.0001408,53.2178,86.5664,86.0757,274.0396,2.0756e-06,-2.55e-06,0.0,0 STARLINK-4013,1 52604U 22052G   23325.46034227 -.00000255  00000-0  20756-5 0  9999,2 52604  53.2178  86.5664 0001408  86.0757 274.0396 15.08835817 84533,6917.893,95.438,540.732,538.784,0.0
52604.0,STARLINK-4013,PAYLOAD,2023-11-21 12:38:16,15.08836993,0.0001411,53.2179,86.2695,92.7719,267.3434,4.4293e-06,-2.17e-06,0.0,0 STARLINK-4013,1 52604U 22052G   23325.52658173 -.00000217  00000-0  44293-5 0  9998,2 52604  53.2179  86.2695 0001411  92.7719 267.3434 15.08836993 84175,6917.89,95.438,540.731,538.778,0.0
52604.0,STARLINK-4013,PAYLOAD,2023-11-21 17:24:25,15.08844678,0.0001294,53.2181,85.3771,87.3575,272.7565,5.6785e-05,6.16e-06,0.0,0 STARLINK-4013,1 52604U 22052G   23325.72529541  .00000616  00000-0  56785-4 0  9996,2 52604  53.2181  85.3771 0001294  87.3575 272.7565 15.08844678 84570,6917.866,95.437,540.626,538.836,0.0
52604.0,STARLINK-4013,PAYLOAD,2023-11-22 14:04:25,15.08853572,0.0001507,53.2185,81.5114,78.1931,281.923,0.00013314,1.832e-05,0.0,0 STARLINK-4013,1 52604U 22052G   23326.58640607  .00001832  00000-0  13314-3 0  9999,2 52604  53.2185  81.5114 0001507  78.1931 281.9230 15.08853572 84332,6917.839,95.437,540.746,538.661,0.0
52604.0,STARLINK-4013,PAYLOAD,2023-11-23 07:33:40,15.08842387,0.000132,53.2186,78.2401,100.4799,259.6341,8.5638e-06,-1.52e-06,0.0,0 STARLINK-4013,1 52604U 22052G   23327.31505569 -.00000152  00000-0  85638-5 0  9993,2 52604  53.2186  78.2401 0001320 100.4799 259.6341 15.08842387 84819,6917.873,95.437,540.651,538.825,0.0
